<?xml version="1.0" encoding="UTF-8"?>
<ndm xmlns:xsi="http://www.w3.org/2001/XMLSchema-instance" xsi:noNamespaceSchemaLocation="https://sanaregistry.org/r/ndmxml_unqualified/ndmxml-2.0.0-master-2.0.xsd">
<omm id="CCSDS_OMM_VERS" version="2.0">
<header><CREATION_DATE/><ORIGINATOR/></header><body><segment><metadata><OBJECT_NAME>QIANFAN-81</OBJECT_NAME><OBJECT_ID>2025-046J</OBJECT_ID><CENTER_NAME>EARTH</CENTER_NAME><REF_FRAME>TEME</REF_FRAME><TIME_SYSTEM>UTC</TIME_SYSTEM><MEAN_ELEMENT_THEORY>SGP4</MEAN_ELEMENT_THEORY></metadata><data><meanElements><EPOCH>2025-12-25T21:27:59.614272</EPOCH><MEAN_MOTION>13.51006582</MEAN_MOTION><ECCENTRICITY>.00167308</ECCENTRICITY><INCLINATION>88.9775</INCLINATION><RA_OF_ASC_NODE>318.5108</RA_OF_ASC_NODE><ARG_OF_PERICENTER>82.1439</ARG_OF_PERICENTER><MEAN_ANOMALY>278.1611</MEAN_ANOMALY></meanElements><tleParameters><EPHEMERIS_TYPE>0</EPHEMERIS_TYPE><CLASSIFICATION_TYPE>U</CLASSIFICATION_TYPE><NORAD_CAT_ID>63167</NORAD_CAT_ID><ELEMENT_SET_NO>999</ELEMENT_SET_NO><REV_AT_EPOCH>4926</REV_AT_EPOCH><BSTAR>.28519161E-3</BSTAR><MEAN_MOTION_DOT>.196E-5</MEAN_MOTION_DOT><MEAN_MOTION_DDOT>0</MEAN_MOTION_DDOT></tleParameters></data></segment></body></omm>
<omm id="CCSDS_OMM_VERS" version="2.0">
<header><CREATION_DATE/><ORIGINATOR/></header><body><segment><metadata><OBJECT_NAME>QIANFAN-82</OBJECT_NAME><OBJECT_ID>2025-046K</OBJECT_ID><CENTER_NAME>EARTH</CENTER_NAME><REF_FRAME>TEME</REF_FRAME><TIME_SYSTEM>UTC</TIME_SYSTEM><MEAN_ELEMENT_THEORY>SGP4</MEAN_ELEMENT_THEORY></metadata><data><meanElements><EPOCH>2025-12-25T22:17:24.266112</EPOCH><MEAN_MOTION>13.50979605</MEAN_MOTION><ECCENTRICITY>.00148313</ECCENTRICITY><INCLINATION>88.9775</INCLINATION><RA_OF_ASC_NODE>318.5512</RA_OF_ASC_NODE><ARG_OF_PERICENTER>88.7829</ARG_OF_PERICENTER><MEAN_ANOMALY>271.5021</MEAN_ANOMALY></meanElements><tleParameters><EPHEMERIS_TYPE>0</EPHEMERIS_TYPE><CLASSIFICATION_TYPE>U</CLASSIFICATION_TYPE><NORAD_CAT_ID>63168</NORAD_CAT_ID><ELEMENT_SET_NO>999</ELEMENT_SET_NO><REV_AT_EPOCH>4925</REV_AT_EPOCH><BSTAR>.2717765E-3</BSTAR><MEAN_MOTION_DOT>.188E-5</MEAN_MOTION_DOT><MEAN_MOTION_DDOT>0</MEAN_MOTION_DDOT></tleParameters></data></segment></body></omm>
<omm id="CCSDS_OMM_VERS" version="2.0">
<header><CREATION_DATE/><ORIGINATOR/></header><body><segment><metadata><OBJECT_NAME>QIANFAN-83</OBJECT_NAME><OBJECT_ID>2025-046L</OBJECT_ID><CENTER_NAME>EARTH</CENTER_NAME><REF_FRAME>TEME</REF_FRAME><TIME_SYSTEM>UTC</TIME_SYSTEM><MEAN_ELEMENT_THEORY>SGP4</MEAN_ELEMENT_THEORY></metadata><data><meanElements><EPOCH>2025-12-25T22:09:01.002528</EPOCH><MEAN_MOTION>13.61978927</MEAN_MOTION><ECCENTRICITY>.00162097</ECCENTRICITY><INCLINATION>88.9776</INCLINATION><RA_OF_ASC_NODE>318.3023</RA_OF_ASC_NODE><ARG_OF_PERICENTER>75.5368</ARG_OF_PERICENTER><MEAN_ANOMALY>284.7587</MEAN_ANOMALY></meanElements><tleParameters><EPHEMERIS_TYPE>0</EPHEMERIS_TYPE><CLASSIFICATION_TYPE>U</CLASSIFICATION_TYPE><NORAD_CAT_ID>63169</NORAD_CAT_ID><ELEMENT_SET_NO>999</ELEMENT_SET_NO><REV_AT_EPOCH>4939</REV_AT_EPOCH><BSTAR>.26109927E-3</BSTAR><MEAN_MOTION_DOT>.214E-5</MEAN_MOTION_DOT><MEAN_MOTION_DDOT>0</MEAN_MOTION_DDOT></tleParameters></data></segment></body></omm>
<omm id="CCSDS_OMM_VERS" version="2.0">
<header><CREATION_DATE/><ORIGINATOR/></header><body><segment><metadata><OBJECT_NAME>QIANFAN-84</OBJECT_NAME><OBJECT_ID>2025-046M</OBJECT_ID><CENTER_NAME>EARTH</CENTER_NAME><REF_FRAME>TEME</REF_FRAME><TIME_SYSTEM>UTC</TIME_SYSTEM><MEAN_ELEMENT_THEORY>SGP4</MEAN_ELEMENT_THEORY></metadata><data><meanElements><EPOCH>2025-12-25T21:10:38.479584</EPOCH><MEAN_MOTION>13.50989904</MEAN_MOTION><ECCENTRICITY>.00178191</ECCENTRICITY><INCLINATION>88.9774</INCLINATION><RA_OF_ASC_NODE>318.6886</RA_OF_ASC_NODE><ARG_OF_PERICENTER>86.0846</ARG_OF_PERICENTER><MEAN_ANOMALY>274.2342</MEAN_ANOMALY></meanElements><tleParameters><EPHEMERIS_TYPE>0</EPHEMERIS_TYPE><CLASSIFICATION_TYPE>U</CLASSIFICATION_TYPE><NORAD_CAT_ID>63170</NORAD_CAT_ID><ELEMENT_SET_NO>999</ELEMENT_SET_NO><REV_AT_EPOCH>4917</REV_AT_EPOCH><BSTAR>.25373552E-3</BSTAR><MEAN_MOTION_DOT>.176E-5</MEAN_MOTION_DOT><MEAN_MOTION_DDOT>0</MEAN_MOTION_DDOT></tleParameters></data></segment></body></omm>
<omm id="CCSDS_OMM_VERS" version="2.0">
<header><CREATION_DATE/><ORIGINATOR/></header><body><segment><metadata><OBJECT_NAME>QIANFAN-85</OBJECT_NAME><OBJECT_ID>2025-046N</OBJECT_ID><CENTER_NAME>EARTH</CENTER_NAME><REF_FRAME>TEME</REF_FRAME><TIME_SYSTEM>UTC</TIME_SYSTEM><MEAN_ELEMENT_THEORY>SGP4</MEAN_ELEMENT_THEORY></metadata><data><meanElements><EPOCH>2025-12-25T22:52:45.854400</EPOCH><MEAN_MOTION>13.50980452</MEAN_MOTION><ECCENTRICITY>.00151841</ECCENTRICITY><INCLINATION>88.9774</INCLINATION><RA_OF_ASC_NODE>318.5529</RA_OF_ASC_NODE><ARG_OF_PERICENTER>87.7221</ARG_OF_PERICENTER><MEAN_ANOMALY>272.5669</MEAN_ANOMALY></meanElements><tleParameters><EPHEMERIS_TYPE>0</EPHEMERIS_TYPE><CLASSIFICATION_TYPE>U</CLASSIFICATION_TYPE><NORAD_CAT_ID>63171</NORAD_CAT_ID><ELEMENT_SET_NO>999</ELEMENT_SET_NO><REV_AT_EPOCH>4925</REV_AT_EPOCH><BSTAR>.2643936E-3</BSTAR><MEAN_MOTION_DOT>.183E-5</MEAN_MOTION_DOT><MEAN_MOTION_DDOT>0</MEAN_MOTION_DDOT></tleParameters></data></segment></body></omm>
<omm id="CCSDS_OMM_VERS" version="2.0">
<header><CREATION_DATE/><ORIGINATOR/></header><body><segment><metadata><OBJECT_NAME>QIANFAN-86</OBJECT_NAME><OBJECT_ID>2025-046P</OBJECT_ID><CENTER_NAME>EARTH</CENTER_NAME><REF_FRAME>TEME</REF_FRAME><TIME_SYSTEM>UTC</TIME_SYSTEM><MEAN_ELEMENT_THEORY>SGP4</MEAN_ELEMENT_THEORY></metadata><data><meanElements><EPOCH>2025-12-25T21:18:06.430752</EPOCH><MEAN_MOTION>13.50980158</MEAN_MOTION><ECCENTRICITY>.00130405</ECCENTRICITY><INCLINATION>88.9777</INCLINATION><RA_OF_ASC_NODE>318.4222</RA_OF_ASC_NODE><ARG_OF_PERICENTER>91.2796</ARG_OF_PERICENTER><MEAN_ANOMALY>268.9849</MEAN_ANOMALY></meanElements><tleParameters><EPHEMERIS_TYPE>0</EPHEMERIS_TYPE><CLASSIFICATION_TYPE>U</CLASSIFICATION_TYPE><NORAD_CAT_ID>63172</NORAD_CAT_ID><ELEMENT_SET_NO>999</ELEMENT_SET_NO><REV_AT_EPOCH>4932</REV_AT_EPOCH><BSTAR>.27618597E-3</BSTAR><MEAN_MOTION_DOT>.191E-5</MEAN_MOTION_DOT><MEAN_MOTION_DDOT>0</MEAN_MOTION_DDOT></tleParameters></data></segment></body></omm>
<omm id="CCSDS_OMM_VERS" version="2.0">
<header><CREATION_DATE/><ORIGINATOR/></header><body><segment><metadata><OBJECT_NAME>QIANFAN-87</OBJECT_NAME><OBJECT_ID>2025-046Q</OBJECT_ID><CENTER_NAME>EARTH</CENTER_NAME><REF_FRAME>TEME</REF_FRAME><TIME_SYSTEM>UTC</TIME_SYSTEM><MEAN_ELEMENT_THEORY>SGP4</MEAN_ELEMENT_THEORY></metadata><data><meanElements><EPOCH>2025-12-25T22:23:30.291936</EPOCH><MEAN_MOTION>13.50977710</MEAN_MOTION><ECCENTRICITY>.00137315</ECCENTRICITY><INCLINATION>88.9773</INCLINATION><RA_OF_ASC_NODE>318.5287</RA_OF_ASC_NODE><ARG_OF_PERICENTER>87.2267</ARG_OF_PERICENTER><MEAN_ANOMALY>273.0456</MEAN_ANOMALY></meanElements><tleParameters><EPHEMERIS_TYPE>0</EPHEMERIS_TYPE><CLASSIFICATION_TYPE>U</CLASSIFICATION_TYPE><NORAD_CAT_ID>63173</NORAD_CAT_ID><ELEMENT_SET_NO>999</ELEMENT_SET_NO><REV_AT_EPOCH>4926</REV_AT_EPOCH><BSTAR>.24986622E-3</BSTAR><MEAN_MOTION_DOT>.174E-5</MEAN_MOTION_DOT><MEAN_MOTION_DDOT>0</MEAN_MOTION_DDOT></tleParameters></data></segment></body></omm>
<omm id="CCSDS_OMM_VERS" version="2.0">
<header><CREATION_DATE/><ORIGINATOR/></header><body><segment><metadata><OBJECT_NAME>QIANFAN-88</OBJECT_NAME><OBJECT_ID>2025-046R</OBJECT_ID><CENTER_NAME>EARTH</CENTER_NAME><REF_FRAME>TEME</REF_FRAME><TIME_SYSTEM>UTC</TIME_SYSTEM><MEAN_ELEMENT_THEORY>SGP4</MEAN_ELEMENT_THEORY></metadata><data><meanElements><EPOCH>2025-12-25T22:46:55.803936</EPOCH><MEAN_MOTION>13.50984305</MEAN_MOTION><ECCENTRICITY>.00140547</ECCENTRICITY><INCLINATION>88.9776</INCLINATION><RA_OF_ASC_NODE>318.4818</RA_OF_ASC_NODE><ARG_OF_PERICENTER>94.1831</ARG_OF_PERICENTER><MEAN_ANOMALY>266.0926</MEAN_ANOMALY></meanElements><tleParameters><EPHEMERIS_TYPE>0</EPHEMERIS_TYPE><CLASSIFICATION_TYPE>U</CLASSIFICATION_TYPE><NORAD_CAT_ID>63174</NORAD_CAT_ID><ELEMENT_SET_NO>999</ELEMENT_SET_NO><REV_AT_EPOCH>4929</REV_AT_EPOCH><BSTAR>.2404059E-3</BSTAR><MEAN_MOTION_DOT>.167E-5</MEAN_MOTION_DOT><MEAN_MOTION_DDOT>0</MEAN_MOTION_DDOT></tleParameters></data></segment></body></omm>

</ndm>
