QIANFAN-81              
1 63167U 25046J   25359.89443998  .00000196  00000+0  28519-3 0  9991
2 63167  88.9775 318.5108 0016730  82.1439 278.1611 13.51006582 49267
QIANFAN-82              
1 63168U 25046K   25359.92875308  .00000188  00000+0  27178-3 0  9991
2 63168  88.9775 318.5512 0014831  88.7829 271.5021 13.50979605 49257
QIANFAN-83              
1 63169U 25046L   25359.92292827  .00000214  00000+0  26110-3 0  9996
2 63169  88.9776 318.3023 0016209  75.5368 284.7587 13.61978927 49393
QIANFAN-84              
1 63170U 25046M   25359.88238981  .00000176  00000+0  25374-3 0  9992
2 63170  88.9774 318.6886 0017819  86.0846 274.2342 13.50989904 49173
QIANFAN-85              
1 63171U 25046N   25359.95330850  .00000183  00000+0  26439-3 0  9990
2 63171  88.9774 318.5529 0015184  87.7221 272.5669 13.50980452 49256
QIANFAN-86              
1 63172U 25046P   25359.88757443  .00000191  00000+0  27619-3 0  9994
2 63172  88.9777 318.4222 0013040  91.2796 268.9849 13.50980158 49325
QIANFAN-87              
1 63173U 25046Q   25359.93298949  .00000174  00000+0  24987-3 0  9998
2 63173  88.9773 318.5287 0013731  87.2267 273.0456 13.50977710 49263
QIANFAN-88              
1 63174U 25046R   25359.94925699  .00000167  00000+0  24041-3 0  9992
2 63174  88.9776 318.4818 0014054  94.1831 266.0926 13.50984305 49294
